[{"OBJECT_NAME":"TIANMU-1 19","OBJECT_ID":"2023-208A","EPOCH":"2026-03-09T22:13:36.801696","MEAN_MOTION":15.2984143,"ECCENTRICITY":0.00039292,"INCLINATION":97.4383,"RA_OF_ASC_NODE":184.9132,"ARG_OF_PERICENTER":316.2611,"MEAN_ANOMALY":43.8317,"EPHEMERIS_TYPE":0,"CLASSIFICATION_TYPE":"U","NORAD_CAT_ID":58660,"ELEMENT_SET_NO":999,"REV_AT_EPOCH":12214,"BSTAR":0.00040995676,"MEAN_MOTION_DOT":0.00011779,"MEAN_MOTION_DDOT":0},{"OBJECT_NAME":"STARLINK-31982","OBJECT_ID":"2024-111G","EPOCH":"2026-03-09T09:31:19.490304","MEAN_MOTION":15.30197424,"ECCENTRICITY":0.00013125,"INCLINATION":53.161,"RA_OF_ASC_NODE":76.6335,"ARG_OF_PERICENTER":104.9475,"MEAN_ANOMALY":255.1672,"EPHEMERIS_TYPE":0,"CLASSIFICATION_TYPE":"U","NORAD_CAT_ID":60022,"ELEMENT_SET_NO":999,"REV_AT_EPOCH":9900,"BSTAR":-5.245089e-5,"MEAN_MOTION_DOT":-1.912e-5,"MEAN_MOTION_DDOT":0}]
